start=new Date('2022-03-23T00:00:00.000Z').valueOf();
sats=[{"LAUNCH_DATE":"2021-03-11","BSTAR":"-0.00005896100000","NORAD_CAT_ID":"47807","TIME_SYSTEM":"UTC","RCS_SIZE":"LARGE","EPOCH":"2022-03-22T17:15:36.803808","CENTER_NAME":"EARTH","PERIAPSIS":"546.125","FILE":"3370190","MEAN_MOTION":"15.06396433","TLE_LINE2":"2 47807  53.0560 241.8109 0001588  58.2368 301.8775 15.06396433 58763","RA_OF_ASC_NODE":"241.8109","PERIOD":"95.592","SEMIMAJOR_AXIS":"6925.359","INCLINATION":"53.0560","ELEMENT_SET_NO":"999","OBJECT_NAME":"STARLINK-2388","ECCENTRICITY":"0.00015880","OBJECT_TYPE":"PAYLOAD","MEAN_MOTION_DDOT":"0.0000000000000","MEAN_ANOMALY":"301.8775","CLASSIFICATION_TYPE":"U","TLE_LINE1":"1 47807U 21018W   22081.71917597 -.00001160  00000-0 -58961-4 0  9990","APOAPSIS":"548.324","COUNTRY_CODE":"US","EPHEMERIS_TYPE":"0","MEAN_ELEMENT_THEORY":"SGP4","DECAY_DATE":null,"GP_ID":"199427785","SITE":"AFETR","REF_FRAME":"TEME","REV_AT_EPOCH":"5876","OBJECT_ID":"2021-018W","ARG_OF_PERICENTER":"58.2368","MEAN_MOTION_DOT":"-0.00001160"},{"PERIOD":"95.592","INCLINATION":"53.0534","ELEMENT_SET_NO":"999","SEMIMAJOR_AXIS":"6925.366","ECCENTRICITY":"0.00015650","OBJECT_NAME":"STARLINK-2389","MEAN_MOTION":"15.06394341","FILE":"3370190","RA_OF_ASC_NODE":"266.3966","TLE_LINE2":"2 47808  53.0534 266.3966 0001565  67.4693 292.6461 15.06394341 58491","CENTER_NAME":"EARTH","EPOCH":"2022-03-22T19:32:57.534720","PERIAPSIS":"546.147","BSTAR":"-0.00005169000000","LAUNCH_DATE":"2021-03-11","NORAD_CAT_ID":"47808","TIME_SYSTEM":"UTC","RCS_SIZE":"LARGE","REF_FRAME":"TEME","REV_AT_EPOCH":"5849","ARG_OF_PERICENTER":"67.4693","MEAN_MOTION_DOT":"-0.00001051","OBJECT_ID":"2021-018X","DECAY_DATE":null,"GP_ID":"199428534","SITE":"AFETR","COUNTRY_CODE":"US","EPHEMERIS_TYPE":"0","MEAN_ELEMENT_THEORY":"SGP4","OBJECT_TYPE":"PAYLOAD","TLE_LINE1":"1 47808U 21018X   22081.81455480 -.00001051  00000-0 -51690-4 0  9991","CLASSIFICATION_TYPE":"U","MEAN_ANOMALY":"292.6461","MEAN_MOTION_DDOT":"0.0000000000000","APOAPSIS":"548.315"},{"BSTAR":"-0.00000808860000","LAUNCH_DATE":"2021-03-11","RCS_SIZE":"LARGE","TIME_SYSTEM":"UTC","NORAD_CAT_ID":"47809","PERIAPSIS":"545.989","CENTER_NAME":"EARTH","EPOCH":"2022-03-22T19:40:14.427552","RA_OF_ASC_NODE":"271.3558","TLE_LINE2":"2 47809  53.0542 271.3558 0001728  65.9712 294.1457 15.06409239 58428","MEAN_MOTION":"15.06409239","FILE":"3370190","INCLINATION":"53.0542","ELEMENT_SET_NO":"999","SEMIMAJOR_AXIS":"6925.320","PERIOD":"95.592","OBJECT_NAME":"STARLINK-2390","ECCENTRICITY":"0.00017280","OBJECT_TYPE":"PAYLOAD","APOAPSIS":"548.382","TLE_LINE1":"1 47809U 21018Y   22081.81961143 -.00000402  00000-0 -80886-5 0  9999","CLASSIFICATION_TYPE":"U","MEAN_ANOMALY":"294.1457","MEAN_MOTION_DDOT":"0.0000000000000","EPHEMERIS_TYPE":"0","COUNTRY_CODE":"US","MEAN_ELEMENT_THEORY":"SGP4","DECAY_DATE":null,"SITE":"AFETR","GP_ID":"199429285","REF_FRAME":"TEME","REV_AT_EPOCH":"5842","MEAN_MOTION_DOT":"-0.00000402","ARG_OF_PERICENTER":"65.9712","OBJECT_ID":"2021-018Y"},{"OBJECT_TYPE":"PAYLOAD","APOAPSIS":"548.213","CLASSIFICATION_TYPE":"U","TLE_LINE1":"1 47810U 21018Z   22081.84449286  .00002028  00000-0  15499-3 0  9993","MEAN_MOTION_DDOT":"0.0000000000000","MEAN_ANOMALY":"296.1402","EPHEMERIS_TYPE":"0","COUNTRY_CODE":"US","MEAN_ELEMENT_THEORY":"SGP4","DECAY_DATE":null,"SITE":"AFETR","GP_ID":"199427536","REF_FRAME":"TEME","REV_AT_EPOCH":"5828","ARG_OF_PERICENTER":"63.9736","MEAN_MOTION_DOT":"0.00002028","OBJECT_ID":"2021-018Z","BSTAR":"0.00015499000000","LAUNCH_DATE":"2021-03-11","RCS_SIZE":"LARGE","TIME_SYSTEM":"UTC","NORAD_CAT_ID":"47810","PERIAPSIS":"546.210","CENTER_NAME":"EARTH","EPOCH":"2022-03-22T20:16:04.183104","RA_OF_ASC_NODE":"281.2587","TLE_LINE2":"2 47810  53.0539 281.2587 0001446  63.9736 296.1402 15.06400577 58281","MEAN_MOTION":"15.06400577","FILE":"3370190","INCLINATION":"53.0539","ELEMENT_SET_NO":"999","SEMIMAJOR_AXIS":"6925.347","PERIOD":"95.592","ECCENTRICITY":"0.00014460","OBJECT_NAME":"STARLINK-2391"},{"REF_FRAME":"TEME","REV_AT_EPOCH":"5867","OBJECT_ID":"2021-018AA","MEAN_MOTION_DOT":"0.00001431","ARG_OF_PERICENTER":"70.2890","DECAY_DATE":null,"GP_ID":"199428286","SITE":"AFETR","COUNTRY_CODE":"US","EPHEMERIS_TYPE":"0","MEAN_ELEMENT_THEORY":"SGP4","OBJECT_TYPE":"PAYLOAD","MEAN_ANOMALY":"289.8267","MEAN_MOTION_DDOT":"0.0000000000000","TLE_LINE1":"1 47811U 21018AA  22081.61873118  .00001431  00000-0  11492-3 0  9990","CLASSIFICATION_TYPE":"U","APOAPSIS":"548.274","PERIOD":"95.592","SEMIMAJOR_AXIS":"6925.328","INCLINATION":"53.0539","ELEMENT_SET_NO":"999","ECCENTRICITY":"0.00015620","OBJECT_NAME":"STARLINK-2392","FILE":"3370190","MEAN_MOTION":"15.06406810","TLE_LINE2":"2 47811  53.0539 252.2681 0001562  70.2890 289.8267 15.06406810 58673","RA_OF_ASC_NODE":"252.2681","EPOCH":"2022-03-22T14:50:58.373952","CENTER_NAME":"EARTH","PERIAPSIS":"546.111","LAUNCH_DATE":"2021-03-11","BSTAR":"0.00011492000000","NORAD_CAT_ID":"47811","TIME_SYSTEM":"UTC","RCS_SIZE":"LARGE"},{"MEAN_MOTION_DOT":"-0.00000738","ARG_OF_PERICENTER":"66.8953","OBJECT_ID":"2021-018AB","REV_AT_EPOCH":"5822","REF_FRAME":"TEME","GP_ID":"199429035","SITE":"AFETR","DECAY_DATE":null,"MEAN_ELEMENT_THEORY":"SGP4","COUNTRY_CODE":"US","EPHEMERIS_TYPE":"0","TLE_LINE1":"1 47812U 21018AB  22081.85555129 -.00000738  00000-0 -30620-4 0  9992","CLASSIFICATION_TYPE":"U","MEAN_MOTION_DDOT":"0.0000000000000","MEAN_ANOMALY":"293.2208","APOAPSIS":"548.331","OBJECT_TYPE":"PAYLOAD","OBJECT_NAME":"STARLINK-2393","ECCENTRICITY":"0.00016340","PERIOD":"95.592","ELEMENT_SET_NO":"999","INCLINATION":"53.0555","SEMIMAJOR_AXIS":"6925.335","MEAN_MOTION":"15.06404566","FILE":"3370190","RA_OF_ASC_NODE":"281.2036","TLE_LINE2":"2 47812  53.0555 281.2036 0001634  66.8953 293.2208 15.06404566 58220","CENTER_NAME":"EARTH","EPOCH":"2022-03-22T20:31:59.631456","PERIAPSIS":"546.068","NORAD_CAT_ID":"47812","TIME_SYSTEM":"UTC","RCS_SIZE":"LARGE","BSTAR":"-0.00003062000000","LAUNCH_DATE":"2021-03-11"},{"INCLINATION":"53.0542","ELEMENT_SET_NO":"999","SEMIMAJOR_AXIS":"6925.350","PERIOD":"95.592","ECCENTRICITY":"0.00015290","OBJECT_NAME":"STARLINK-2394","RA_OF_ASC_NODE":"251.5692","TLE_LINE2":"2 47813  53.0542 251.5692 0001529  67.8622 292.2529 15.06399613 58694","MEAN_MOTION":"15.06399613","FILE":"3370190","PERIAPSIS":"546.156","CENTER_NAME":"EARTH","EPOCH":"2022-03-22T18:33:54.040896","BSTAR":"-0.00004529900000","LAUNCH_DATE":"2021-03-11","TIME_SYSTEM":"UTC","RCS_SIZE":"LARGE","NORAD_CAT_ID":"47813","REF_FRAME":"TEME","REV_AT_EPOCH":"5869","MEAN_MOTION_DOT":"-0.00000956","ARG_OF_PERICENTER":"67.8622","OBJECT_ID":"2021-018AC","DECAY_DATE":null,"SITE":"AFETR","GP_ID":"199428785","EPHEMERIS_TYPE":"0","COUNTRY_CODE":"US","MEAN_ELEMENT_THEORY":"SGP4","OBJECT_TYPE":"PAYLOAD","APOAPSIS":"548.274","CLASSIFICATION_TYPE":"U","TLE_LINE1":"1 47813U 21018AC  22081.77354214 -.00000956  00000-0 -45299-4 0  9996","MEAN_ANOMALY":"292.2529","MEAN_MOTION_DDOT":"0.0000000000000"},{"MEAN_MOTION_DOT":"0.00001007","ARG_OF_PERICENTER":"58.9742","OBJECT_ID":"2021-018AD","REF_FRAME":"TEME","REV_AT_EPOCH":"5842","SITE":"AFETR","GP_ID":"199428037","DECAY_DATE":null,"MEAN_ELEMENT_THEORY":"SGP4","EPHEMERIS_TYPE":"0","COUNTRY_CODE":"US","APOAPSIS":"548.382","CLASSIFICATION_TYPE":"U","TLE_LINE1":"1 47814U 21018AD  22081.79749291  .00001007  00000-0  86466-4 0  9999","MEAN_MOTION_DDOT":"0.0000000000000","MEAN_ANOMALY":"301.1415","OBJECT_TYPE":"PAYLOAD","ECCENTRICITY":"0.00017110","OBJECT_NAME":"STARLINK-2395","INCLINATION":"53.0552","ELEMENT_SET_NO":"999","SEMIMAJOR_AXIS":"6925.332","PERIOD":"95.592","RA_OF_ASC_NODE":"271.4672","TLE_LINE2":"2 47814  53.0552 271.4672 0001711  58.9742 301.1415 15.06405456 58420","MEAN_MOTION":"15.06405456","FILE":"3370190","PERIAPSIS":"546.012","CENTER_NAME":"EARTH","EPOCH":"2022-03-22T19:08:23.387424","TIME_SYSTEM":"UTC","RCS_SIZE":"MEDIUM","NORAD_CAT_ID":"47814","BSTAR":"0.00008646600000","LAUNCH_DATE":"2021-03-11"},{"EPOCH":"2022-03-22T21:29:42.646272","CENTER_NAME":"EARTH","PERIAPSIS":"545.943","LAUNCH_DATE":"2021-03-11","BSTAR":"0.00008920700000","NORAD_CAT_ID":"47815","RCS_SIZE":"LARGE","TIME_SYSTEM":"UTC","PERIOD":"95.592","SEMIMAJOR_AXIS":"6925.337","INCLINATION":"53.0539","ELEMENT_SET_NO":"999","ECCENTRICITY":"0.00018190","OBJECT_NAME":"STARLINK-2396","FILE":"3370190","MEAN_MOTION":"15.06403620","TLE_LINE2":"2 47815  53.0539 266.0196 0001819  60.1012 300.0157 15.06403620 58445","RA_OF_ASC_NODE":"266.0196","COUNTRY_CODE":"US","EPHEMERIS_TYPE":"0","MEAN_ELEMENT_THEORY":"SGP4","OBJECT_TYPE":"PAYLOAD","MEAN_MOTION_DDOT":"0.0000000000000","MEAN_ANOMALY":"300.0157","CLASSIFICATION_TYPE":"U","TLE_LINE1":"1 47815U 21018AE  22081.89563248  .00001047  00000-0  89207-4 0  9997","APOAPSIS":"548.462","REV_AT_EPOCH":"5844","REF_FRAME":"TEME","OBJECT_ID":"2021-018AE","ARG_OF_PERICENTER":"60.1012","MEAN_MOTION_DOT":"0.00001047","DECAY_DATE":null,"GP_ID":"199427786","SITE":"AFETR"},{"APOAPSIS":"548.236","MEAN_ANOMALY":"298.7395","MEAN_MOTION_DDOT":"0.0000000000000","CLASSIFICATION_TYPE":"U","TLE_LINE1":"1 47816U 21018AF  22081.83803861  .00001649  00000-0  12958-3 0  9996","OBJECT_TYPE":"PAYLOAD","MEAN_ELEMENT_THEORY":"SGP4","EPHEMERIS_TYPE":"0","COUNTRY_CODE":"US","SITE":"AFETR","GP_ID":"199428535","DECAY_DATE":null,"OBJECT_ID":"2021-018AF","MEAN_MOTION_DOT":"0.00001649","ARG_OF_PERICENTER":"61.3745","REF_FRAME":"TEME","REV_AT_EPOCH":"5836","TIME_SYSTEM":"UTC","RCS_SIZE":"LARGE","NORAD_CAT_ID":"47816","LAUNCH_DATE":"2021-03-11","BSTAR":"0.00012958000000","PERIAPSIS":"546.145","EPOCH":"2022-03-22T20:06:46.535904","CENTER_NAME":"EARTH","TLE_LINE2":"2 47816  53.0524 271.2838 0001510  61.3745 298.7395 15.06407435 58361","RA_OF_ASC_NODE":"271.2838","FILE":"3370190","MEAN_MOTION":"15.06407435","OBJECT_NAME":"STARLINK-2399","ECCENTRICITY":"0.00015100","SEMIMAJOR_AXIS":"6925.326","INCLINATION":"53.0524","ELEMENT_SET_NO":"999","PERIOD":"95.592"}];
